{
  "type": "FeatureCollection",
  "features": [
    {
      "type": "Feature",
      "properties": {
        "norad_id": 35462,
        "name": "COSMOS 2251 DEB",
        "group": "cosmos-2251-debris",
        "lat": -7.701959822470409,
        "lon": -114.56832075293043,
        "alt_km": 777.567504811148,
        "timestamp": "2025-12-24T07:45:06.595068+00:00",
        "meta_object_name": "COSMOS 2251 DEB",
        "meta_object_id": "1993-036ALG",
        "meta_epoch": "2025-12-19T10:12:24.458112",
        "meta_mean_motion": 14.29342636,
        "meta_eccentricity": 0.0086733,
        "meta_inclination": 74.0371,
        "meta_ra_of_asc_node": 256.5417,
        "meta_arg_of_pericenter": 290.2864,
        "meta_mean_anomaly": 68.8979,
        "meta_ephemeris_type": 0,
        "meta_classification_type": "U",
        "meta_norad_cat_id": 35462,
        "meta_element_set_no": 999,
        "meta_rev_at_epoch": 66476,
        "meta_bstar": 0.0010032,
        "meta_mean_motion_dot": 2.635e-05,
        "meta_mean_motion_ddot": 0,
        "tle_line1": "1 35462U 93036ALG 25353.42528308  .00002635  00000+0  10032-2 0  9994",
        "tle_line2": "2 35462  74.0371 256.5417 0086733 290.2864  68.8979 14.29342636664768"
      },
      "geometry": {
        "type": "Point",
        "coordinates": [
          -114.56832075293043,
          -7.701959822470409
        ]
      }
    },
    {
      "type": "Feature",
      "properties": {
        "norad_id": 35465,
        "name": "COSMOS 2251 DEB",
        "group": "cosmos-2251-debris",
        "lat": -43.07328222118448,
        "lon": 159.85938977123482,
        "alt_km": 706.8256906263605,
        "timestamp": "2025-12-24T07:45:06.595078+00:00",
        "meta_object_name": "COSMOS 2251 DEB",
        "meta_object_id": "1993-036ALK",
        "meta_epoch": "2025-12-23T05:21:40.851936",
        "meta_mean_motion": 14.44343886,
        "meta_eccentricity": 0.00645011,
        "meta_inclination": 73.9972,
        "meta_ra_of_asc_node": 177.4731,
        "meta_arg_of_pericenter": 335.4735,
        "meta_mean_anomaly": 24.3357,
        "meta_ephemeris_type": 0,
        "meta_classification_type": "U",
        "meta_norad_cat_id": 35465,
        "meta_element_set_no": 999,
        "meta_rev_at_epoch": 87393,
        "meta_bstar": 0.00030952177,
        "meta_mean_motion_dot": 1.064e-05,
        "meta_mean_motion_ddot": 0,
        "tle_line1": "1 35465U 93036ALK 25357.22338949  .00001064  00000+0  30952-3 0  9998",
        "tle_line2": "2 35465  73.9972 177.4731 0064501 335.4735  24.3357 14.44343886873937"
      },
      "geometry": {
        "type": "Point",
        "coordinates": [
          159.85938977123482,
          -43.07328222118448
        ]
      }
    },
    {
      "type": "Feature",
      "properties": {
        "norad_id": 35469,
        "name": "COSMOS 2251 DEB",
        "group": "cosmos-2251-debris",
        "lat": 18.473059015780994,
        "lon": 7.591149754180285,
        "alt_km": 764.4971373775506,
        "timestamp": "2025-12-24T07:45:06.595088+00:00",
        "meta_object_name": "COSMOS 2251 DEB",
        "meta_object_id": "1993-036ALP",
        "meta_epoch": "2025-12-23T16:45:28.013760",
        "meta_mean_motion": 14.49828285,
        "meta_eccentricity": 0.00764244,
        "meta_inclination": 74.0168,
        "meta_ra_of_asc_node": 3.2705,
        "meta_arg_of_pericenter": 155.9037,
        "meta_mean_anomaly": 204.5731,
        "meta_ephemeris_type": 0,
        "meta_classification_type": "U",
        "meta_norad_cat_id": 35469,
        "meta_element_set_no": 999,
        "meta_rev_at_epoch": 88270,
        "meta_bstar": 8.2225084e-05,
        "meta_mean_motion_dot": 3e-06,
        "meta_mean_motion_ddot": 0,
        "tle_line1": "1 35469U 93036ALP 25357.69824090  .00000300  00000+0  82225-4 0  9993",
        "tle_line2": "2 35469  74.0168   3.2705 0076424 155.9037 204.5731 14.49828285882703"
      },
      "geometry": {
        "type": "Point",
        "coordinates": [
          7.591149754180285,
          18.473059015780994
        ]
      }
    },
    {
      "type": "Feature",
      "properties": {
        "norad_id": 35475,
        "name": "COSMOS 2251 DEB",
        "group": "cosmos-2251-debris",
        "lat": -12.02771266971183,
        "lon": 139.6548155996029,
        "alt_km": 674.7282422613098,
        "timestamp": "2025-12-24T07:45:06.595098+00:00",
        "meta_object_name": "COSMOS 2251 DEB",
        "meta_object_id": "1993-036ALV",
        "meta_epoch": "2025-12-22T16:36:26.868096",
        "meta_mean_motion": 14.69928525,
        "meta_eccentricity": 0.00201226,
        "meta_inclination": 74.022,
        "meta_ra_of_asc_node": 146.318,
        "meta_arg_of_pericenter": 219.0346,
        "meta_mean_anomaly": 140.9374,
        "meta_ephemeris_type": 0,
        "meta_classification_type": "U",
        "meta_norad_cat_id": 35475,
        "meta_element_set_no": 999,
        "meta_rev_at_epoch": 65763,
        "meta_bstar": 0.0020453199,
        "meta_mean_motion_dot": 0.00012275,
        "meta_mean_motion_ddot": 0,
        "tle_line1": "1 35475U 93036ALV 25356.69197764  .00012275  00000+0  20453-2 0  9997",
        "tle_line2": "2 35475  74.0220 146.3180 0020122 219.0346 140.9374 14.69928525657632"
      },
      "geometry": {
        "type": "Point",
        "coordinates": [
          139.6548155996029,
          -12.02771266971183
        ]
      }
    },
    {
      "type": "Feature",
      "properties": {
        "norad_id": 35476,
        "name": "COSMOS 2251 DEB",
        "group": "cosmos-2251-debris",
        "lat": 71.8307676003658,
        "lon": 99.28585248327555,
        "alt_km": 629.8479994476511,
        "timestamp": "2025-12-24T07:45:06.595109+00:00",
        "meta_object_name": "COSMOS 2251 DEB",
        "meta_object_id": "1993-036ALW",
        "meta_epoch": "2025-12-23T21:55:12.926784",
        "meta_mean_motion": 14.75892475,
        "meta_eccentricity": 0.00183582,
        "meta_inclination": 73.9775,
        "meta_ra_of_asc_node": 38.9735,
        "meta_arg_of_pericenter": 15.7826,
        "meta_mean_anomaly": 49.7231,
        "meta_ephemeris_type": 0,
        "meta_classification_type": "U",
        "meta_norad_cat_id": 35476,
        "meta_element_set_no": 999,
        "meta_rev_at_epoch": 88052,
        "meta_bstar": 0.0015560292,
        "meta_mean_motion_dot": 0.00010701,
        "meta_mean_motion_ddot": 0,
        "tle_line1": "1 35476U 93036ALW 25357.91334406  .00010701  00000+0  15560-2 0  9995",
        "tle_line2": "2 35476  73.9775  38.9735 0018358  15.7826  49.7231 14.75892475880525"
      },
      "geometry": {
        "type": "Point",
        "coordinates": [
          99.28585248327555,
          71.8307676003658
        ]
      }
    },
    {
      "type": "Feature",
      "properties": {
        "norad_id": 35580,
        "name": "COSMOS 2251 DEB",
        "group": "cosmos-2251-debris",
        "lat": -43.8320699501813,
        "lon": 142.9274775784643,
        "alt_km": 1136.5311556901006,
        "timestamp": "2025-12-24T07:45:06.595118+00:00",
        "meta_object_name": "COSMOS 2251 DEB",
        "meta_object_id": "1993-036ALX",
        "meta_epoch": "2025-12-22T19:33:13.925664",
        "meta_mean_motion": 13.83921158,
        "meta_eccentricity": 0.0280776,
        "meta_inclination": 73.9007,
        "meta_ra_of_asc_node": 161.5885,
        "meta_arg_of_pericenter": 164.8747,
        "meta_mean_anomaly": 196.0996,
        "meta_ephemeris_type": 0,
        "meta_classification_type": "U",
        "meta_norad_cat_id": 35580,
        "meta_element_set_no": 999,
        "meta_rev_at_epoch": 62396,
        "meta_bstar": 0.0019852622,
        "meta_mean_motion_dot": 2.966e-05,
        "meta_mean_motion_ddot": 0,
        "tle_line1": "1 35580U 93036ALX 25356.81474451  .00002966  00000+0  19853-2 0  9997",
        "tle_line2": "2 35580  73.9007 161.5885 0280776 164.8747 196.0996 13.83921158623967"
      },
      "geometry": {
        "type": "Point",
        "coordinates": [
          142.9274775784643,
          -43.8320699501813
        ]
      }
    },
    {
      "type": "Feature",
      "properties": {
        "norad_id": 35583,
        "name": "COSMOS 2251 DEB",
        "group": "cosmos-2251-debris",
        "lat": -72.01736984316568,
        "lon": 75.97418642270306,
        "alt_km": 856.6033642454859,
        "timestamp": "2025-12-24T07:45:06.595129+00:00",
        "meta_object_name": "COSMOS 2251 DEB",
        "meta_object_id": "1993-036AMA",
        "meta_epoch": "2025-12-23T19:50:15.801792",
        "meta_mean_motion": 13.55354425,
        "meta_eccentricity": 0.03849784,
        "meta_inclination": 73.9157,
        "meta_ra_of_asc_node": 194.0477,
        "meta_arg_of_pericenter": 216.3569,
        "meta_mean_anomaly": 141.0826,
        "meta_ephemeris_type": 0,
        "meta_classification_type": "U",
        "meta_norad_cat_id": 35583,
        "meta_element_set_no": 999,
        "meta_rev_at_epoch": 82562,
        "meta_bstar": 0.00078625408,
        "meta_mean_motion_dot": 8.53e-06,
        "meta_mean_motion_ddot": 0,
        "tle_line1": "1 35583U 93036AMA 25357.82657178  .00000853  00000+0  78625-3 0  9997",
        "tle_line2": "2 35583  73.9157 194.0477 0384978 216.3569 141.0826 13.55354425825623"
      },
      "geometry": {
        "type": "Point",
        "coordinates": [
          75.97418642270306,
          -72.01736984316568
        ]
      }
    }
  ]
}